[{"OBJECT_NAME":"STARLINK-35057","OBJECT_ID":"2025-200F","EPOCH":"2026-03-09T22:33:38.756160","MEAN_MOTION":15.05642749,"ECCENTRICITY":0.00012721,"INCLINATION":97.6047,"RA_OF_ASC_NODE":139.9693,"ARG_OF_PERICENTER":96.9565,"MEAN_ANOMALY":263.1806,"EPHEMERIS_TYPE":0,"CLASSIFICATION_TYPE":"U","NORAD_CAT_ID":65525,"ELEMENT_SET_NO":999,"REV_AT_EPOCH":2916,"BSTAR":0.00012213276,"MEAN_MOTION_DOT":1.702e-5,"MEAN_MOTION_DDOT":0},{"OBJECT_NAME":"CZ-4B DEB","OBJECT_ID":"1999-057KD","EPOCH":"2026-03-09T21:11:33.062784","MEAN_MOTION":14.92997204,"ECCENTRICITY":0.00562796,"INCLINATION":98.5504,"RA_OF_ASC_NODE":202.6828,"ARG_OF_PERICENTER":125.3801,"MEAN_ANOMALY":235.2692,"EPHEMERIS_TYPE":0,"CLASSIFICATION_TYPE":"U","NORAD_CAT_ID":26432,"ELEMENT_SET_NO":999,"REV_AT_EPOCH":35696,"BSTAR":0.0033240821,"MEAN_MOTION_DOT":0.00035726,"MEAN_MOTION_DDOT":0}]
